DMSP 5D-3 F16 (USA 172) 
1 28054U 03048A   26156.78567317  .00000015  00000+0  31411-4 0  9997
2 28054  98.9893 180.5382 0007160 170.3847 299.8700 14.14482021167879
METEOSAT-9 (MSG-2)      
1 28912U 05049B   26156.84400411  .00000135  00000+0  00000+0 0  9999
2 28912   9.3350  54.2780 0002326  40.8445 148.6919  1.00267887  6887
DMSP 5D-3 F17 (USA 191) 
1 29522U 06050A   26156.78516726  .00000054  00000+0  50147-4 0  9992
2 29522  98.7378 163.5885 0011327  88.5293 271.7178 14.14991359 10818
FENGYUN 3A              
1 32958U 08026A   26156.55849556  .00000085  00000+0  61041-4 0  9998
2 32958  98.6881  97.6094 0009091 154.7297 205.4326 14.19568645933756
GOES 14                 
1 35491U 09033A   26156.35465316 -.00000229  00000+0  00000+0 0  9992
2 35491   1.6591  83.1855 0002095   0.7745  86.0901  1.00115245  6475
DMSP 5D-3 F18 (USA 210) 
1 35951U 09057A   26156.68506343  .00000284  00000+0  17009-3 0  9992
2 35951  98.9033 137.4796 0009913 286.1679  73.8403 14.14890300857965
EWS-G2 (GOES 15)        
1 36411U 10008A   26156.80552985  .00000031  00000+0  00000+0 0  9998
2 36411   1.2460  83.0489 0005508  36.3516 128.3894  1.00275946 59524
COMS 1                  
1 36744U 10032A   26152.73864208 -.00000334  00000+0  00000+0 0  9993
2 36744   4.7700  75.5552 0001064 351.7830 216.9341  1.00271905 50939
FENGYUN 3B              
1 37214U 10059A   26156.85607132  .00000138  00000+0  95000-4 0  9993
2 37214  98.9619 202.8220 0021329 216.9100 248.6216 14.14838622805824
SUOMI NPP               
1 37849U 11061A   26156.78082003  .00000089  00000+0  63135-4 0  9996
2 37849  98.7950  97.7351 0002132  31.2744 328.8558 14.19514956756824
METEOSAT-10 (MSG-3)     
1 38552U 12035B   26156.06416943  .00000006  00000+0  00000+0 0  9991
2 38552   4.6426  61.0733 0001803 337.4560 238.2428  1.00275627 50731
METOP-B                 
1 38771U 12049A   26156.78621894  .00000117  00000+0  73501-4 0  9995
2 38771  98.6508 208.5124 0002862  45.6422 314.4989 14.21429640711647
INSAT-3D                
1 39216U 13038B   26156.81156396 -.00000327  00000+0  00000+0 0  9996
2 39216   1.8961  82.6848 0000856 350.0393 243.1710  1.00268507 46968
FENGYUN 3C              
1 39260U 13052A   26156.80671727  .00000110  00000+0  76828-4 0  9995
2 39260  98.4974 131.2046 0015727  58.5393 301.7317 14.15752455656957
METEOR-M 2              
1 40069U 14037A   26156.81279459  .00000050  00000+0  42145-4 0  9993
2 40069  98.5114 132.9545 0007065  71.7577 288.4369 14.21458059617700
HIMAWARI-8              
1 40267U 14060A   26156.80498361 -.00000263  00000+0  00000+0 0  9999
2 40267   0.0140  37.3867 0000930  55.9210 231.3955  1.00271950 42643
FENGYUN 2G              
1 40367U 14090A   26156.65428056 -.00000291  00000+0  00000+0 0  9991
2 40367   5.6094  72.9555 0003554 153.6086   2.6058  1.00278137 41886
METEOSAT-11 (MSG-4)     
1 40732U 15034A   26156.77894101  .00000076  00000+0  00000+0 0  9997
2 40732   3.1738  71.1727 0001660   4.5278 108.3055  1.00276753  7105
ELEKTRO-L 2             
1 41105U 15074A   26156.06124635 -.00000106  00000+0  00000+0 0  9991
2 41105   6.6638  70.6705 0001332 281.5102 268.8844  1.00272317 38380
SENTINEL-3A             
1 41335U 16011A   26156.78539705  .00000125  00000+0  69554-4 0  9999
2 41335  98.6251 224.3323 0001321 105.3152 254.8174 14.26736837536431
INSAT-3DR               
1 41752U 16054A   26156.79402229 -.00000064  00000+0  00000+0 0  9999
2 41752   0.0769  87.8779 0010304 187.0669 339.1257  1.00270854 35706
HIMAWARI-9              
1 41836U 16064A   26156.80498361 -.00000262  00000+0  00000+0 0  9997
2 41836   0.0405 169.7758 0000975 296.1433 218.8663  1.00274602 35098
GOES 16                 
1 41866U 16071A   26156.68508152 -.00000078  00000+0  00000+0 0  9999
2 41866   0.3106  85.6419 0000615 319.3634 351.0798  1.00271085 34982
FENGYUN 4A              
1 41882U 16077A   26156.87293823 -.00000344  00000+0  00000+0 0  9996
2 41882   2.2939  80.4063 0008164 151.6631 100.2341  1.00275666 34813
CYGFM05                 
1 41884U 16078A   26156.76234149  .00026070  00000+0  35989-3 0  9994
2 41884  34.9576 336.2153 0007381  33.6708 326.4484 15.56142511526971
CYGFM04                 
1 41885U 16078B   26156.70406058  .00031599  00000+0  36478-3 0  9995
2 41885  34.9333 304.8611 0006073  78.6785 281.4623 15.60843678527203
CYGFM02                 
1 41886U 16078C   26156.79020429  .00042470  00000+0  43700-3 0  9995
2 41886  34.9411 299.1495 0007038  82.1301 278.0225 15.63734478527382
CYGFM01                 
1 41887U 16078D   26156.75597727  .00026321  00000+0  35456-3 0  9998
2 41887  34.9408 337.4061 0007166  27.1380 332.9718 15.56799448526928
CYGFM08                 
1 41888U 16078E   26156.79882425  .00035802  00000+0  43627-3 0  9998
2 41888  34.9441 316.9980 0008050  61.6172 298.5364 15.59399751527193
CYGFM07                 
1 41890U 16078G   26156.75869681  .00031324  00000+0  38078-3 0  9995
2 41890  34.9454 305.6169 0006475  78.7337 281.4115 15.59497028527219
CYGFM03                 
1 41891U 16078H   26156.79365537  .00036117  00000+0  43874-3 0  9996
2 41891  34.9410 307.3248 0006006  65.1599 294.9750 15.59497263527191
